COSMOS 2425 (716)       
1 29670U 06062A   21163.56623966  .00000025  00000-0  00000-0 0  9991
2 29670  64.8432 255.6143 0023768 343.7651  17.7324  2.13117129112571
COSMOS 2433 (720)       
1 32275U 07052A   21163.72306565 -.00000048  00000-0  00000-0 0  9993
2 32275  66.0610  16.9425 0000621 263.4231  32.3013  2.13104083106086
COSMOS 2432 (719)       
1 32276U 07052B   21163.84686845 -.00000048  00000-0  00000-0 0  9999
2 32276  66.0750  17.0322 0010008 340.5343 359.4800  2.13103513106085
COSMOS 2434 (721)       
1 32393U 07065A   21163.61439670  .00000027  00000-0  00000+0 0  9995
2 32393  64.4609 254.0724 0002923 101.6791 359.0646  2.13103037104790
COSMOS 2436 (723)       
1 32395U 07065C   21163.96644356  .00000027  00000-0  00000-0 0  9995
2 32395  64.4708 254.1137 0014281   0.0648 146.8683  2.13103052104738
COSMOS 2456 (730)       
1 36111U 09070A   21163.63259961  .00000050  00000-0  00000-0 0  9997
2 36111  64.2767 133.7484 0006240 305.0908 340.2245  2.13099254 89454
COSMOS 2457 (733)       
1 36112U 09070B   21163.84978917  .00000051  00000-0  00000-0 0  9991
2 36112  64.2599 133.6254 0004270 195.8816  20.4034  2.13101524 89464
COSMOS 2459 (731)       
1 36400U 10007A   21163.75569953 -.00000048  00000-0  00000-0 0  9996
2 36400  65.9573  15.8655 0025933 352.0447 186.1305  2.13108384 87804
COSMOS 2461 (735)       
1 36401U 10007B   21163.75578676 -.00000048  00000-0  00000-0 0  9999
2 36401  65.9514  15.8306 0021164  12.1444 166.6487  2.13103808 87817
COSMOS 2460 (732)       
1 36402U 10007C   21162.36065328 -.00000050  00000-0  00000-0 0  9994
2 36402  65.9360  15.8327 0002436  72.1157  61.1130  2.13106814 87788
COSMOS 2464 (736)       
1 37139U 10041C   21163.70197275  .00000027  00000-0  00000-0 0  9999
2 37139  64.0623 253.3297 0027108  10.8246  18.0577  2.13100699 83871
COSMOS 2471 (701K)      
1 37372U 11009A   21163.80629672 -.00000048  00000-0  00000-0 0  9999
2 37372  65.9333  15.7124 0014357 227.3171  86.3159  2.13052302 80082
COSMOS 2476 (744)       
1 37867U 11064A   21163.76282083  .00000053  00000-0  00000-0 0  9990
2 37867  64.5723 134.9559 0022220 241.9118  45.6277  2.13101890 74805
COSMOS 2477 (745)       
1 37868U 11064B   21163.84889044  .00000053  00000-0  00000-0 0  9990
2 37868  64.5795 135.0126 0019801 243.8003 288.0840  2.13101695 74769
COSMOS 2475 (743)       
1 37869U 11064C   21163.67744416  .00000052  00000-0  00000-0 0  9994
2 37869  64.5869 135.0236 0024207 261.0817  96.9564  2.13102010 74766
COSMOS 2485 (747)       
1 39155U 13019A   21162.11572929  .00000042  00000-0  00000-0 0  9991
2 39155  64.7375 135.3583 0022648 238.0660 270.3450  2.13101925 63242
COSMOS 2492 (754)       
1 39620U 14012A   21163.68025667 -.00000048  00000-0  00000-0 0  9994
2 39620  65.8298  15.5242 0012943 333.6302 329.8492  2.13103170 56228
COSMOS 2500 (755)       
1 40001U 14032A   21163.88435716 -.00000048  00000-0  00000-0 0  9993
2 40001  65.7709  15.4031 0004865 184.0261 135.6986  2.13102646 54440
COSMOS 2501 (702K)      
1 40315U 14075A   21163.85006785  .00000026  00000-0  00000-0 0  9990
2 40315  63.7734 254.1332 0017649 208.9092 250.8372  2.13101472 50858
COSMOS 2514 (751)       
1 41330U 16008A   21163.42165821 -.00000049  00000-0  00000+0 0  9991
2 41330  65.5698  15.2032 0008043 205.4364 302.4342  2.13102804 41604
COSMOS 2516 (753)       
1 41554U 16032A   21163.69936582  .00000026  00000-0  00000-0 0  9990
2 41554  63.9980 254.3115 0013880 215.6980  40.3257  2.13107069 39213
COSMOS 2522 (752)       
1 42939U 17055A   21163.66362809  .00000026  00000-0  00000-0 0  9996
2 42939  64.2321 254.5992 0007619 241.8993 209.8607  2.13101879 28972
COSMOS 2527 (756)       
1 43508U 18053A   21163.64575058  .00000052  00000-0  00000-0 0  9997
2 43508  64.9026 135.2292 0009377 243.8153 226.3191  2.13102521 23269
COSMOS 2529 (757)       
1 43687U 18086A   21163.90363907  .00000026  00000-0  00000-0 0  9999
2 43687  64.4456 254.8065 0009453 266.5144 324.9334  2.13102061 20284
COSMOS 2534 (758)       
1 44299U 19030A   21163.94399998  .00000026  00000-0  00000-0 0  9992
2 44299  64.5158 254.6548 0012326 287.2183 110.0350  2.13102034 15932
COSMOS 2544 (759)       
1 44850U 19088A   21163.83576997  .00000054  00000-0  00000-0 0  9993
2 44850  64.8880 135.0830 0014107 266.2870  33.3888  2.13102281 11703
COSMOS 2545 (760)       
1 45358U 20018A   21163.43200773 -.00000051  00000-0  00000-0 0  9992
2 45358  64.9035  16.1166 0006834 251.9602 307.9785  2.13102723  9640
